{"fetched_at":"2026-03-29T16:36:15Z","count":15609,"tles":[{"name":"STARLINK-36180","line1":"1 67114U 25299N   26087.64680773  .00037215  00000+0  13547-2 0  9999","line2":"2 67114  43.0012  62.0922 0001175 269.8102  90.2615 15.27588960 16016","category":"Starlink"}]}